[{"OBJECT_NAME":"STARLINK-31589","OBJECT_ID":"2024-084A","EPOCH":"2026-03-09T22:35:54.031776","MEAN_MOTION":15.27575395,"ECCENTRICITY":5.285e-5,"INCLINATION":42.9979,"RA_OF_ASC_NODE":40.2098,"ARG_OF_PERICENTER":106.1445,"MEAN_ANOMALY":253.9465,"EPHEMERIS_TYPE":0,"CLASSIFICATION_TYPE":"U","NORAD_CAT_ID":59654,"ELEMENT_SET_NO":999,"REV_AT_EPOCH":10443,"BSTAR":4.8923224e-5,"MEAN_MOTION_DOT":1.085e-5,"MEAN_MOTION_DDOT":0},{"OBJECT_NAME":"COSMOS 1862","OBJECT_ID":"1987-055A","EPOCH":"2026-03-09T22:37:02.390592","MEAN_MOTION":15.30492139,"ECCENTRICITY":0.00097484,"INCLINATION":82.4856,"RA_OF_ASC_NODE":47.1862,"ARG_OF_PERICENTER":26.6325,"MEAN_ANOMALY":333.5414,"EPHEMERIS_TYPE":0,"CLASSIFICATION_TYPE":"U","NORAD_CAT_ID":18152,"ELEMENT_SET_NO":999,"REV_AT_EPOCH":8987,"BSTAR":0.00034125048,"MEAN_MOTION_DOT":0.00010107,"MEAN_MOTION_DDOT":0}]
